NORAD_CAT_ID,OBJECT_NAME,OBJECT_TYPE,EPOCH,MEAN_MOTION,ECCENTRICITY,INCLINATION,RA_OF_ASC_NODE,ARG_OF_PERICENTER,MEAN_ANOMALY,BSTAR,MEAN_MOTION_DOT,MEAN_MOTION_DDOT,TLE_LINE0,TLE_LINE1,TLE_LINE2,SEMIMAJOR_AXIS,PERIOD,APOGEE,PERIGEE,DECAYED
51888.0,STARLINK-3536,PAYLOAD,2023-05-04 08:00:05,15.08840445,0.0001024,53.217,349.4654,99.8756,260.2352,3.2258e-05,2.26e-06,0.0,0 STARLINK-3536,1 51888U 22022AN  23124.33340101  .00000226  00000-0  32258-4 0  9999,2 51888  53.2170 349.4654 0001024  99.8756 260.2352 15.08840445 66197,6917.879,95.438,540.452,539.036,0.0
51888.0,STARLINK-3536,PAYLOAD,2023-05-04 20:43:11,15.08840532,0.0001191,53.2174,347.0836,90.3595,269.7534,9.1543e-05,1.169e-05,0.0,0 STARLINK-3536,1 51888U 22022AN  23124.86332340  .00001169  00000-0  91543-4 0  9992,2 51888  53.2174 347.0836 0001191  90.3595 269.7534 15.08840532 66271,6917.879,95.438,540.568,538.92,0.0
51888.0,STARLINK-3536,PAYLOAD,2023-05-04 22:18:34,15.08841475,0.0001179,53.2175,346.7863,89.3929,270.7198,0.00010653,1.408e-05,0.0,0 STARLINK-3536,1 51888U 22022AN  23124.92956297  .00001408  00000-0  10653-3 0  9990,2 51888  53.2175 346.7863 0001179  89.3929 270.7198 15.08841475 66289,6917.876,95.437,540.556,538.925,0.0
51888.0,STARLINK-3536,PAYLOAD,2023-05-05 20:33:58,15.08837499,0.0001149,53.2171,342.624,95.6831,264.4292,3.1128e-05,2.08e-06,0.0,0 STARLINK-3536,1 51888U 22022AN  23125.85692797  .00000208  00000-0  31128-4 0  9993,2 51888  53.2171 342.6240 0001149  95.6831 264.4292 15.08837499 66420,6917.888,95.438,540.548,538.958,0.0
51888.0,STARLINK-3536,PAYLOAD,2023-05-05 22:09:21,15.08838963,0.0001149,53.2171,342.3267,90.8233,269.2891,6.4905e-05,7.45e-06,0.0,0 STARLINK-3536,1 51888U 22022AN  23125.92316785  .00000745  00000-0  64905-4 0  9996,2 51888  53.2171 342.3267 0001149  90.8233 269.2891 15.08838963 66435,6917.884,95.438,540.543,538.954,0.0
51888.0,STARLINK-3536,PAYLOAD,2023-05-06 01:20:07,15.0884309,0.0001067,53.2167,341.7319,87.6499,272.4615,0.00013463,1.856e-05,0.0,0 STARLINK-3536,1 51888U 22022AN  23126.05564637  .00001856  00000-0  13463-3 0  9998,2 51888  53.2167 341.7319 0001067  87.6499 272.4615 15.08843090 66457,6917.871,95.437,540.474,538.998,0.0
51888.0,STARLINK-3536,PAYLOAD,2023-05-06 23:35:31,15.08855141,0.0001003,53.2162,337.5682,86.4473,273.6634,0.00025801,3.822e-05,0.0,0 STARLINK-3536,1 51888U 22022AN  23126.98299957  .00003822  00000-0  25801-3 0  9994,2 51888  53.2162 337.5682 0001003  86.4473 273.6634 15.08855141 66596,6917.834,95.437,540.393,539.005,0.0
51888.0,STARLINK-3536,PAYLOAD,2023-05-07 20:15:32,15.08841966,0.0001075,53.2156,333.7025,84.5166,275.5949,0.00010635,1.405e-05,0.0,0 STARLINK-3536,1 51888U 22022AN  23127.84412800  .00001405  00000-0  10635-3 0  9998,2 51888  53.2156 333.7025 0001075  84.5166 275.5949 15.08841966 66720,6917.874,95.437,540.483,538.996,0.0
51888.0,STARLINK-3536,PAYLOAD,2023-05-08 20:06:20,15.08829014,0.0001167,53.2153,329.2432,87.6081,272.5045,-0.00013333,-2.408e-05,0.0,0 STARLINK-3536,1 51888U 22022AN  23128.83774146 -.00002408  00000-0 -13333-3 0  9996,2 51888  53.2153 329.2432 0001167  87.6081 272.5045 15.08829014 66871,6917.914,95.438,540.586,538.972,0.0
51888.0,STARLINK-3536,PAYLOAD,2023-05-10 05:29:26,15.08857985,0.0001241,53.2169,322.994,83.81,276.3033,0.0003223,4.848e-05,0.0,0 STARLINK-3536,1 51888U 22022AN  23130.22877520  .00004848  00000-0  32230-3 0  9997,2 51888  53.2169 322.9940 0001241  83.8100 276.3033 15.08857985 67086,6917.825,95.436,540.549,538.832,0.0
51888.0,STARLINK-3536,PAYLOAD,2023-05-10 19:47:53,15.0886529,0.0001212,53.2168,320.3229,102.5225,257.5902,0.00057998,8.961e-05,0.0,0 STARLINK-3536,1 51888U 22022AN  23130.82492929  .00008961  00000-0  57998-3 0  9997,2 51888  53.2168 320.3229 0001212 102.5225 257.5902 15.08865290 67176,6917.803,95.436,540.507,538.83,0.0
51888.0,STARLINK-3536,PAYLOAD,2023-05-11 05:20:12,15.08854975,0.0001643,53.2164,318.536,87.4503,272.6678,0.00049558,7.611e-05,0.0,0 STARLINK-3536,1 51888U 22022AN  23131.22236984  .00007611  00000-0  49558-3 0  9993,2 51888  53.2164 318.5360 0001643  87.4503 272.6678 15.08854975 67238,6917.835,95.437,540.836,538.563,0.0
51888.0,STARLINK-3536,PAYLOAD,2023-05-11 18:03:17,15.0884497,0.0001036,53.2158,316.1585,92.2728,267.8383,0.00031478,4.726e-05,0.0,0 STARLINK-3536,1 51888U 22022AN  23131.75228978  .00004726  00000-0  31478-3 0  9991,2 51888  53.2158 316.1585 0001036  92.2728 267.8383 15.08844970 67315,6917.865,95.437,540.447,539.014,0.0
51888.0,STARLINK-3536,PAYLOAD,2023-05-12 05:10:59,15.08842019,9.3e-05,53.2151,314.0778,94.0816,266.0283,0.00047704,7.313e-05,0.0,0 STARLINK-3536,1 51888U 22022AN  23132.21597124  .00007313  00000-0  47704-3 0  9999,2 51888  53.2151 314.0778 0000930  94.0816 266.0283 15.08842019 67388,6917.874,95.437,540.383,539.096,0.0
51888.0,STARLINK-3536,PAYLOAD,2023-05-12 19:29:28,15.08844034,0.000105,53.2152,311.4003,86.8951,273.2161,0.00042774,6.527e-05,0.0,0 STARLINK-3536,1 51888U 22022AN  23132.81213313  .00006527  00000-0  42774-3 0  9998,2 51888  53.2152 311.4003 0001050  86.8951 273.2161 15.08844034 67478,6917.868,95.437,540.459,539.007,0.0
51888.0,STARLINK-3536,PAYLOAD,2023-05-13 05:01:47,15.08843684,0.0001058,53.215,309.6159,84.3397,275.7716,0.00032111,4.827e-05,0.0,0 STARLINK-3536,1 51888U 22022AN  23133.20957310  .00004827  00000-0  32111-3 0  9999,2 51888  53.2150 309.6159 0001058  84.3397 275.7716 15.08843684 67532,6917.869,95.437,540.466,539.002,0.0
51888.0,STARLINK-3536,PAYLOAD,2023-05-13 19:20:15,15.08847063,0.0001176,53.2157,306.9398,79.0751,281.0373,0.00025489,3.772e-05,0.0,0 STARLINK-3536,1 51888U 22022AN  23133.80573190  .00003772  00000-0  25489-3 0  9993,2 51888  53.2157 306.9398 0001176  79.0751 281.0373 15.08847063 67624,6917.859,95.437,540.537,538.91,0.0
51888.0,STARLINK-3536,PAYLOAD,2023-05-14 04:52:34,15.0884321,0.0001163,53.2153,305.1576,80.4298,279.6825,0.0001769,2.529e-05,0.0,0 STARLINK-3536,1 51888U 22022AN  23134.20317367  .00002529  00000-0  17690-3 0  9994,2 51888  53.2153 305.1576 0001163  80.4298 279.6825 15.08843210 67688,6917.871,95.437,540.54,538.931,0.0
51888.0,STARLINK-3536,PAYLOAD,2023-05-14 17:35:39,15.08843891,0.0001108,53.2163,302.776,93.3175,266.7944,7.1648e-05,8.53e-06,0.0,0 STARLINK-3536,1 51888U 22022AN  23134.73309308  .00000853  00000-0  71648-4 0  9990,2 51888  53.2163 302.7760 0001108  93.3175 266.7944 15.08843891 67766,6917.868,95.437,540.5,538.967,0.0
51888.0,STARLINK-3536,PAYLOAD,2023-05-15 04:43:21,15.08839509,0.000108,53.2164,300.6939,91.7774,268.3342,5.3881e-05,5.7e-06,0.0,0 STARLINK-3536,1 51888U 22022AN  23135.19677541  .00000570  00000-0  53881-4 0  9993,2 51888  53.2164 300.6939 0001080  91.7774 268.3342 15.08839509 67837,6917.882,95.438,540.494,539.0,0.0
51888.0,STARLINK-3536,PAYLOAD,2023-05-15 11:04:54,15.08836212,9.96e-05,53.2156,299.5051,90.7231,269.3875,6.4065e-05,7.32e-06,0.0,0 STARLINK-3536,1 51888U 22022AN  23135.46173745  .00000732  00000-0  64065-4 0  9996,2 51888  53.2156 299.5051 0000996  90.7231 269.3875 15.08836212 67875,6917.892,95.438,540.446,539.068,0.0
51888.0,STARLINK-3536,PAYLOAD,2023-05-15 17:26:26,15.08836609,0.0001013,53.2153,298.3163,85.6477,274.463,6.0601e-05,6.77e-06,0.0,0 STARLINK-3536,1 51888U 22022AN  23135.72669769  .00000677  00000-0  60601-4 0  9991,2 51888  53.2153 298.3163 0001013  85.6477 274.4630 15.08836609 67910,6917.891,95.438,540.457,539.055,0.0
51888.0,STARLINK-3536,PAYLOAD,2023-05-16 20:28:00,15.08819475,0.0001254,53.2158,293.2611,92.3463,267.7673,0.00048427,7.423e-05,0.0,0 STARLINK-3536,1 51888U 22022AN  23136.85278087  .00007423  00000-0  48427-3 0  9992,2 51888  53.2158 293.2611 0001254  92.3463 267.7673 15.08819475 68087,6917.943,95.439,540.676,538.941,0.0
51888.0,STARLINK-3536,PAYLOAD,2023-05-17 17:08:00,15.0883803,0.0001037,53.2163,289.3955,83.3832,276.7278,0.00011616,1.561e-05,0.0,0 STARLINK-3536,1 51888U 22022AN  23137.71389837  .00001561  00000-0  11616-3 0  9991,2 51888  53.2163 289.3955 0001037  83.3832 276.7278 15.08838030 68213,6917.886,95.438,540.469,539.034,0.0
51888.0,STARLINK-3536,PAYLOAD,2023-05-18 02:40:19,15.08837878,9.8e-05,53.2157,287.6102,76.3919,283.7182,5.9923e-05,6.66e-06,0.0,0 STARLINK-3536,1 51888U 22022AN  23138.11133986  .00000666  00000-0  59923-4 0  9997,2 51888  53.2157 287.6102 0000980  76.3919 283.7182 15.08837878 68272,6917.887,95.438,540.43,539.074,0.0
51888.0,STARLINK-3536,PAYLOAD,2023-05-18 20:09:34,15.08837875,0.0001247,53.2163,284.3393,82.2243,277.889,0.00010462,1.377e-05,0.0,0 STARLINK-3536,1 51888U 22022AN  23138.83997991  .00001377  00000-0  10462-3 0  9994,2 51888  53.2163 284.3393 0001247  82.2243 277.8890 15.08837875 68387,6917.887,95.438,540.615,538.889,0.0
51888.0,STARLINK-3536,PAYLOAD,2023-05-19 02:31:07,15.08834856,0.0001171,53.2172,283.1486,79.1974,280.915,4.035e-05,3.54e-06,0.0,0 STARLINK-3536,1 51888U 22022AN  23139.10494364  .00000354  00000-0  40350-4 0  9995,2 51888  53.2172 283.1486 0001171  79.1974 280.9150 15.08834856 68424,6917.896,95.438,540.571,538.951,0.0
51888.0,STARLINK-3536,PAYLOAD,2023-05-19 18:24:58,15.08842182,0.000106,53.2162,280.1751,86.9024,273.209,6.1386e-05,6.89e-06,0.0,0 STARLINK-3536,1 51888U 22022AN  23139.76733968  .00000689  00000-0  61386-4 0  9996,2 51888  53.2162 280.1751 0001060  86.9024 273.2090 15.08842182 68524,6917.874,95.437,540.472,539.005,0.0
51888.0,STARLINK-3536,PAYLOAD,2023-05-20 08:43:26,15.08838577,7.22e-05,53.2161,277.4997,94.1989,265.9085,0.00011646,1.566e-05,0.0,0 STARLINK-3536,1 51888U 22022AN  23140.36350056  .00001566  00000-0  11646-3 0  9995,2 51888  53.2161 277.4997 0000722  94.1989 265.9085 15.08838577 68614,6917.885,95.438,540.249,539.25,0.0
51888.0,STARLINK-3536,PAYLOAD,2023-05-20 16:40:20,15.088577,0.0001054,53.217,276.0117,101.2025,258.9086,0.00026148,3.878e-05,0.0,0 STARLINK-3536,1 51888U 22022AN  23140.69468497  .00003878  00000-0  26148-3 0  9991,2 51888  53.2170 276.0117 0001054 101.2025 258.9086 15.08857700 68660,6917.826,95.436,540.42,538.962,0.0
